{
"type": "FeatureCollection",
"name": "bonn_bars",
"crs": { "type": "name", "properties": { "name": "urn:ogc:def:crs:EPSG::3857" } },
"features": [
{ "type": "Feature", "properties": { "id": "node\/456883869", "@id": "node\/456883869", "addr:city": null, "addr:country": null, "addr:housenumber": "9", "addr:postcode": null, "addr:street": "Münsterstraße", "amenity": "bar", "building": null, "contact:facebook": null, "name": "Che Guevara", "phone": null, "roof:colour": null, "roof:material": null, "roof:shape": null, "opening_hours": "Mo-Th 17:00-01:00, Fr,Sa 17:00-03:00", "wheelchair": "no", "contact:phone": null, "website": null, "cuisine": null, "old_name": null, "email": null, "internet_access": null, "smoking": null, "note": null, "outdoor_seating": null, "payment:bitcoin": null, "payment:coins": null, "payment:dogecoin": null, "payment:girocard": null, "payment:litecoin": null, "payment:notes": null, "FIXME": null, "shisha": null, "description": null, "operator": null, "brewery": null }, "geometry": { "type": "Point", "coordinates": [ 789930.609602749114856, 6574371.114333866164088 ] } },
{ "type": "Feature", "properties": { "id": "node\/553008969", "@id": "node\/553008969", "addr:city": "Bonn", "addr:country": "DE", "addr:housenumber": "1", "addr:postcode": "53111", "addr:street": "Am Boeselagerhof", "amenity": "bar", "building": null, "contact:facebook": null, "name": "Hausbar", "phone": null, "roof:colour": null, "roof:material": null, "roof:shape": null, "opening_hours": "Su-We 09:00-02:00, Th-Sa 09:00+", "wheelchair": "yes", "contact:phone": "+49 228 1844770", "website": "http:\/\/www.hausbar-operbonn.de\/", "cuisine": null, "old_name": null, "email": null, "internet_access": null, "smoking": null, "note": null, "outdoor_seating": null, "payment:bitcoin": null, "payment:coins": null, "payment:dogecoin": null, "payment:girocard": null, "payment:litecoin": null, "payment:notes": null, "FIXME": null, "shisha": null, "description": null, "operator": null, "brewery": null }, "geometry": { "type": "Point", "coordinates": [ 791154.957022237824276, 6574902.224365285597742 ] } },
{ "type": "Feature", "properties": { "id": "node\/688554301", "@id": "node\/688554301", "addr:city": null, "addr:country": null, "addr:housenumber": null, "addr:postcode": null, "addr:street": null, "amenity": "bar", "building": null, "contact:facebook": null, "name": "Shaker's", "phone": null, "roof:colour": null, "roof:material": null, "roof:shape": null, "opening_hours": "Su-Tu 17:00-01:00, We,Th 17:00-02:00, Fr,Sa 17:00-03:00", "wheelchair": "limited", "contact:phone": null, "website": "http:\/\/www.shakers-bonn.de", "cuisine": null, "old_name": null, "email": null, "internet_access": null, "smoking": null, "note": null, "outdoor_seating": null, "payment:bitcoin": null, "payment:coins": null, "payment:dogecoin": null, "payment:girocard": null, "payment:litecoin": null, "payment:notes": null, "FIXME": null, "shisha": null, "description": null, "operator": null, "brewery": null }, "geometry": { "type": "Point", "coordinates": [ 789576.602490077144466, 6574816.969365073367953 ] } },
{ "type": "Feature", "properties": { "id": "node\/721205975", "@id": "node\/721205975", "addr:city": "Bonn", "addr:country": "DE", "addr:housenumber": "22", "addr:postcode": "53111", "addr:street": "Wilhelmstraße", "amenity": "bar", "building": null, "contact:facebook": null, "name": "Carpe Diem", "phone": null, "roof:colour": null, "roof:material": null, "roof:shape": null, "opening_hours": "Mo-Su,PH 12:00-02:00", "wheelchair": "limited", "contact:phone": null, "website": null, "cuisine": "regional", "old_name": "Bonner Stuben", "email": null, "internet_access": null, "smoking": null, "note": null, "outdoor_seating": null, "payment:bitcoin": null, "payment:coins": null, "payment:dogecoin": null, "payment:girocard": null, "payment:litecoin": null, "payment:notes": null, "FIXME": null, "shisha": null, "description": null, "operator": null, "brewery": null }, "geometry": { "type": "Point", "coordinates": [ 790148.829200552077964, 6575022.36030721757561 ] } },
{ "type": "Feature", "properties": { "id": "node\/1048467643", "@id": "node\/1048467643", "addr:city": "Bonn", "addr:country": "DE", "addr:housenumber": "34", "addr:postcode": "53111", "addr:street": "Rathausgasse", "amenity": "bar", "building": null, "contact:facebook": null, "name": "Dimi's", "phone": null, "roof:colour": null, "roof:material": null, "roof:shape": null, "opening_hours": null, "wheelchair": "yes", "contact:phone": null, "website": null, "cuisine": null, "old_name": null, "email": null, "internet_access": null, "smoking": null, "note": null, "outdoor_seating": null, "payment:bitcoin": null, "payment:coins": null, "payment:dogecoin": null, "payment:girocard": null, "payment:litecoin": null, "payment:notes": null, "FIXME": null, "shisha": null, "description": null, "operator": null, "brewery": null }, "geometry": { "type": "Point", "coordinates": [ 790885.853285196353681, 6574639.549625695683062 ] } },
{ "type": "Feature", "properties": { "id": "node\/1048467650", "@id": "node\/1048467650", "addr:city": "Bonn", "addr:country": "DE", "addr:housenumber": "38", "addr:postcode": "53111", "addr:street": "Rathausgasse", "amenity": "bar", "building": null, "contact:facebook": null, "name": "Bellini", "phone": "+49-228-652950", "roof:colour": null, "roof:material": null, "roof:shape": null, "opening_hours": "Su-Th 18:00-03:00, Fr,Sa 18:00-05:00", "wheelchair": "limited", "contact:phone": null, "website": "http:\/\/bar-bellini.com", "cuisine": null, "old_name": null, "email": "kontakt@bar-bellini.com", "internet_access": "no", "smoking": "separated", "note": null, "outdoor_seating": null, "payment:bitcoin": null, "payment:coins": null, "payment:dogecoin": null, "payment:girocard": null, "payment:litecoin": null, "payment:notes": null, "FIXME": null, "shisha": null, "description": null, "operator": null, "brewery": null }, "geometry": { "type": "Point", "coordinates": [ 790916.788971685688011, 6574650.454664525575936 ] } },
{ "type": "Feature", "properties": { "id": "node\/1159860342", "@id": "node\/1159860342", "addr:city": null, "addr:country": null, "addr:housenumber": null, "addr:postcode": null, "addr:street": null, "amenity": "bar", "building": null, "contact:facebook": null, "name": "bAbAz", "phone": null, "roof:colour": null, "roof:material": null, "roof:shape": null, "opening_hours": "Mo-Th,Su 12:00-01:00, Fr-Sa 12:00-03:00", "wheelchair": "no", "contact:phone": null, "website": "http:\/\/babaz.club\/", "cuisine": null, "old_name": null, "email": null, "internet_access": null, "smoking": null, "note": "Shisha- und Cocktailbar", "outdoor_seating": "no", "payment:bitcoin": "yes", "payment:coins": "yes", "payment:dogecoin": "yes", "payment:girocard": "yes", "payment:litecoin": "yes", "payment:notes": "yes", "FIXME": null, "shisha": null, "description": null, "operator": null, "brewery": null }, "geometry": { "type": "Point", "coordinates": [ 790875.990378311602399, 6574758.942998293787241 ] } },
{ "type": "Feature", "properties": { "id": "node\/1159860469", "@id": "node\/1159860469", "addr:city": null, "addr:country": null, "addr:housenumber": null, "addr:postcode": null, "addr:street": null, "amenity": "bar", "building": null, "contact:facebook": null, "name": "Bonner Republik", "phone": null, "roof:colour": null, "roof:material": null, "roof:shape": null, "opening_hours": null, "wheelchair": "no", "contact:phone": null, "website": null, "cuisine": null, "old_name": null, "email": null, "internet_access": null, "smoking": null, "note": "wird derzeit (10. Mai. 2011) mal wieder geschlossen", "outdoor_seating": null, "payment:bitcoin": null, "payment:coins": null, "payment:dogecoin": null, "payment:girocard": null, "payment:litecoin": null, "payment:notes": null, "FIXME": "Bonner Republik gibt's endgültig nicht mehr. Wie heißt der neue Laden, der hier aufgemacht hat?", "shisha": null, "description": null, "operator": null, "brewery": null }, "geometry": { "type": "Point", "coordinates": [ 791475.768662754795514, 6573248.624736367724836 ] } },
{ "type": "Feature", "properties": { "id": "node\/1241322363", "@id": "node\/1241322363", "addr:city": "Bonn", "addr:country": "DE", "addr:housenumber": "16", "addr:postcode": "53225", "addr:street": "Konrad-Adenauer-Platz", "amenity": "bar", "building": null, "contact:facebook": null, "name": "El Horizonte", "phone": null, "roof:colour": null, "roof:material": null, "roof:shape": null, "opening_hours": null, "wheelchair": "yes", "contact:phone": null, "website": null, "cuisine": null, "old_name": null, "email": null, "internet_access": null, "smoking": null, "note": null, "outdoor_seating": null, "payment:bitcoin": null, "payment:coins": null, "payment:dogecoin": null, "payment:girocard": null, "payment:litecoin": null, "payment:notes": null, "FIXME": null, "shisha": null, "description": null, "operator": null, "brewery": null }, "geometry": { "type": "Point", "coordinates": [ 792305.221320606768131, 6575253.877586556598544 ] } },
{ "type": "Feature", "properties": { "id": "node\/1581325202", "@id": "node\/1581325202", "addr:city": "Bonn", "addr:country": "DE", "addr:housenumber": "20", "addr:postcode": "53111", "addr:street": "Friedrichstraße", "amenity": "bar", "building": null, "contact:facebook": null, "name": "Weinkommissar", "phone": null, "roof:colour": null, "roof:material": null, "roof:shape": null, "opening_hours": null, "wheelchair": "limited", "contact:phone": null, "website": "http:\/\/www.weinkommissar.de\/", "cuisine": null, "old_name": null, "email": null, "internet_access": null, "smoking": null, "note": null, "outdoor_seating": null, "payment:bitcoin": null, "payment:coins": null, "payment:dogecoin": null, "payment:girocard": null, "payment:litecoin": null, "payment:notes": null, "FIXME": null, "shisha": null, "description": null, "operator": null, "brewery": null }, "geometry": { "type": "Point", "coordinates": [ 790326.884726073243655, 6574824.180915414355695 ] } },
{ "type": "Feature", "properties": { "id": "node\/3213219743", "@id": "node\/3213219743", "addr:city": "Bonn", "addr:country": "DE", "addr:housenumber": "2", "addr:postcode": null, "addr:street": "Rheingasse", "amenity": "bar", "building": null, "contact:facebook": null, "name": "53 Cocktailbar & Lounge", "phone": null, "roof:colour": null, "roof:material": null, "roof:shape": null, "opening_hours": "Mo-Th 16:00-01:00, Fr,Sa 16:00-03:00, Su 16:00-24:00", "wheelchair": null, "contact:phone": null, "website": null, "cuisine": null, "old_name": null, "email": null, "internet_access": null, "smoking": null, "note": null, "outdoor_seating": null, "payment:bitcoin": null, "payment:coins": null, "payment:dogecoin": null, "payment:girocard": null, "payment:litecoin": null, "payment:notes": null, "FIXME": null, "shisha": null, "description": null, "operator": null, "brewery": null }, "geometry": { "type": "Point", "coordinates": [ 790961.684122323757038, 6574677.770091292448342 ] } },
{ "type": "Feature", "properties": { "id": "node\/3337387804", "@id": "node\/3337387804", "addr:city": "Bonn", "addr:country": "DE", "addr:housenumber": "120", "addr:postcode": "53111", "addr:street": "Kölnstraße", "amenity": "bar", "building": null, "contact:facebook": null, "name": "Karizma", "phone": "+49 228 97646919", "roof:colour": null, "roof:material": null, "roof:shape": null, "opening_hours": "Mo-Th 13:00-01:00, Fr-Sa 13:00-03:00, Su 15:00-01:00", "wheelchair": "limited", "contact:phone": null, "website": "http:\/\/www.karizma-bonn.de", "cuisine": null, "old_name": null, "email": null, "internet_access": null, "smoking": null, "note": null, "outdoor_seating": null, "payment:bitcoin": null, "payment:coins": null, "payment:dogecoin": null, "payment:girocard": null, "payment:litecoin": null, "payment:notes": null, "FIXME": null, "shisha": "yes", "description": null, "operator": null, "brewery": null }, "geometry": { "type": "Point", "coordinates": [ 789659.891733088879846, 6575909.99582586530596 ] } },
{ "type": "Feature", "properties": { "id": "node\/4839068712", "@id": "node\/4839068712", "addr:city": "Bonn", "addr:country": null, "addr:housenumber": "19d", "addr:postcode": "53111", "addr:street": "Oxfordstraße", "amenity": "bar", "building": null, "contact:facebook": null, "name": "Jacob's Playground", "phone": null, "roof:colour": null, "roof:material": null, "roof:shape": null, "opening_hours": "Th 19:00-02:00, Fr-Sa 20:00-04:00", "wheelchair": null, "contact:phone": null, "website": "http:\/\/www.oxfordbar.de", "cuisine": null, "old_name": null, "email": "info@oxfordbar.de", "internet_access": null, "smoking": null, "note": null, "outdoor_seating": "no", "payment:bitcoin": null, "payment:coins": null, "payment:dogecoin": null, "payment:girocard": null, "payment:litecoin": null, "payment:notes": null, "FIXME": null, "shisha": null, "description": null, "operator": null, "brewery": null }, "geometry": { "type": "Point", "coordinates": [ 790068.256153113907203, 6574924.914621287025511 ] } },
{ "type": "Feature", "properties": { "id": "node\/5211933146", "@id": "node\/5211933146", "addr:city": null, "addr:country": null, "addr:housenumber": "35", "addr:postcode": null, "addr:street": "Breite Straße", "amenity": "bar", "building": null, "contact:facebook": null, "name": "Steinbeck", "phone": null, "roof:colour": null, "roof:material": null, "roof:shape": null, "opening_hours": null, "wheelchair": null, "contact:phone": null, "website": "https:\/\/de-de.facebook.com\/STEINBECKBonn\/", "cuisine": null, "old_name": null, "email": null, "internet_access": null, "smoking": null, "note": null, "outdoor_seating": null, "payment:bitcoin": null, "payment:coins": null, "payment:dogecoin": null, "payment:girocard": null, "payment:litecoin": null, "payment:notes": null, "FIXME": null, "shisha": null, "description": "Bar mit Snack-Karte", "operator": null, "brewery": null }, "geometry": { "type": "Point", "coordinates": [ 789852.474452160764486, 6575126.315369291231036 ] } },
{ "type": "Feature", "properties": { "id": "node\/5933552107", "@id": "node\/5933552107", "addr:city": "Bonn", "addr:country": "DE", "addr:housenumber": "7", "addr:postcode": "53111", "addr:street": "Münsterstraße", "amenity": "bar", "building": null, "contact:facebook": null, "name": "The Waiting Room", "phone": null, "roof:colour": null, "roof:material": null, "roof:shape": null, "opening_hours": "Tu-Su 18:00-01:00; Fr,Sa 19:00-03:00", "wheelchair": "no", "contact:phone": null, "website": null, "cuisine": null, "old_name": null, "email": null, "internet_access": null, "smoking": null, "note": null, "outdoor_seating": null, "payment:bitcoin": null, "payment:coins": null, "payment:dogecoin": null, "payment:girocard": null, "payment:litecoin": null, "payment:notes": null, "FIXME": null, "shisha": null, "description": null, "operator": null, "brewery": null }, "geometry": { "type": "Point", "coordinates": [ 789911.139823808567598, 6574380.137079020962119 ] } },
{ "type": "Feature", "properties": { "id": "node\/6053325584", "@id": "node\/6053325584", "addr:city": null, "addr:country": null, "addr:housenumber": null, "addr:postcode": null, "addr:street": null, "amenity": "bar", "building": null, "contact:facebook": null, "name": "Siegfried Gin Bar", "phone": null, "roof:colour": null, "roof:material": null, "roof:shape": null, "opening_hours": "Do 18:00-0:00", "wheelchair": null, "contact:phone": null, "website": "https:\/\/www.siegfriedgin.com\/bar\/", "cuisine": null, "old_name": null, "email": null, "internet_access": null, "smoking": null, "note": null, "outdoor_seating": null, "payment:bitcoin": null, "payment:coins": null, "payment:dogecoin": null, "payment:girocard": null, "payment:litecoin": null, "payment:notes": null, "FIXME": null, "shisha": null, "description": null, "operator": "Rheinland Distillers", "brewery": null }, "geometry": { "type": "Point", "coordinates": [ 789223.096315114409663, 6574205.452860930003226 ] } },
{ "type": "Feature", "properties": { "id": "node\/6184423243", "@id": "node\/6184423243", "addr:city": "Bonn", "addr:country": null, "addr:housenumber": "6", "addr:postcode": "53111", "addr:street": "Brüdergasse", "amenity": "bar", "building": null, "contact:facebook": null, "name": "Bar Balthasar", "phone": null, "roof:colour": null, "roof:material": null, "roof:shape": null, "opening_hours": "Mo-Do 16-23, Fr-Sa 16-2, So 16-22", "wheelchair": null, "contact:phone": null, "website": null, "cuisine": null, "old_name": null, "email": null, "internet_access": null, "smoking": null, "note": null, "outdoor_seating": null, "payment:bitcoin": null, "payment:coins": null, "payment:dogecoin": null, "payment:girocard": null, "payment:litecoin": null, "payment:notes": null, "FIXME": null, "shisha": null, "description": null, "operator": null, "brewery": "various" }, "geometry": { "type": "Point", "coordinates": [ 790658.004551439895295, 6574707.58323288615793 ] } }
]
}
